{"type": "FeatureCollection", "features": [{"type": "Feature", "properties": {"norad_id": 24946, "name": "IRIDIUM 33", "group": "iridium-33-debris", "lat": 60.048950939474544, "lon": -123.80930457525278, "alt_km": 764.2422863058309, "timestamp": "2025-12-26T09:30:54.023929+00:00", "meta": {"OBJECT_NAME": "IRIDIUM 33", "OBJECT_ID": "1997-051C", "EPOCH": "2025-12-26T03:56:18.994272", "MEAN_MOTION": 14.35046384, "ECCENTRICITY": 0.0008611, "INCLINATION": 86.3856, "RA_OF_ASC_NODE": 62.586, "ARG_OF_PERICENTER": 157.3074, "MEAN_ANOMALY": 202.8505, "EPHEMERIS_TYPE": 0, "CLASSIFICATION_TYPE": "U", "NORAD_CAT_ID": 24946, "ELEMENT_SET_NO": 999, "REV_AT_EPOCH": 48027, "BSTAR": 0.00010877, "MEAN_MOTION_DOT": 3.3e-06, "MEAN_MOTION_DDOT": 0}, "tle": {"line1": "1 24946U 97051C   25360.16410873  .00000330  00000+0  10877-3 0  9994", "line2": "2 24946  86.3856  62.5860 0008611 157.3074 202.8505 14.35046384480274"}}, "geometry": {"type": "Point", "coordinates": [-123.80930457525278, 60.048950939474544]}}, {"type": "Feature", "properties": {"norad_id": 33773, "name": "IRIDIUM 33 DEB", "group": "iridium-33-debris", "lat": 58.978973641255784, "lon": -131.20828662505238, "alt_km": 732.8255400820262, "timestamp": "2025-12-26T09:30:54.023976+00:00", "meta": {"OBJECT_NAME": "IRIDIUM 33 DEB", "OBJECT_ID": "1997-051L", "EPOCH": "2025-12-26T03:57:58.913280", "MEAN_MOTION": 14.43284045, "ECCENTRICITY": 0.001332, "INCLINATION": 86.3996, "RA_OF_ASC_NODE": 54.8996, "ARG_OF_PERICENTER": 107.9438, "MEAN_ANOMALY": 252.3216, "EPHEMERIS_TYPE": 0, "CLASSIFICATION_TYPE": "U", "NORAD_CAT_ID": 33773, "ELEMENT_SET_NO": 999, "REV_AT_EPOCH": 88541, "BSTAR": 0.00027812, "MEAN_MOTION_DOT": 9.57e-06, "MEAN_MOTION_DDOT": 0}, "tle": {"line1": "1 33773U 97051L   25360.16526520  .00000957  00000+0  27812-3 0  9991", "line2": "2 33773  86.3996  54.8996 0013320 107.9438 252.3216 14.43284045885410"}}, "geometry": {"type": "Point", "coordinates": [-131.20828662505238, 58.978973641255784]}}, {"type": "Feature", "properties": {"norad_id": 33775, "name": "IRIDIUM 33 DEB", "group": "iridium-33-debris", "lat": 63.24681959607824, "lon": -143.5275477671612, "alt_km": 736.5299331008373, "timestamp": "2025-12-26T09:30:54.023992+00:00", "meta": {"OBJECT_NAME": "IRIDIUM 33 DEB", "OBJECT_ID": "1997-051N", "EPOCH": "2025-12-26T04:15:04.667040", "MEAN_MOTION": 14.41496129, "ECCENTRICITY": 0.0015364, "INCLINATION": 86.3623, "RA_OF_ASC_NODE": 43.8159, "ARG_OF_PERICENTER": 114.8502, "MEAN_ANOMALY": 304.1975, "EPHEMERIS_TYPE": 0, "CLASSIFICATION_TYPE": "U", "NORAD_CAT_ID": 33775, "ELEMENT_SET_NO": 999, "REV_AT_EPOCH": 88334, "BSTAR": 0.00030509, "MEAN_MOTION_DOT": 1.011e-05, "MEAN_MOTION_DDOT": 0}, "tle": {"line1": "1 33775U 97051N   25360.17713735  .00001011  00000+0  30509-3 0  9999", "line2": "2 33775  86.3623  43.8159 0015364 114.8502 304.1975 14.41496129883341"}}, "geometry": {"type": "Point", "coordinates": [-143.5275477671612, 63.24681959607824]}}, {"type": "Feature", "properties": {"norad_id": 33776, "name": "IRIDIUM 33 DEB", "group": "iridium-33-debris", "lat": -7.4968192103663975, "lon": -104.48508062818705, "alt_km": 759.5906899994316, "timestamp": "2025-12-26T09:30:54.024006+00:00", "meta": {"OBJECT_NAME": "IRIDIUM 33 DEB", "OBJECT_ID": "1997-051P", "EPOCH": "2025-12-26T03:56:45.049920", "MEAN_MOTION": 14.38257306, "ECCENTRICITY": 0.0015834, "INCLINATION": 86.4031, "RA_OF_ASC_NODE": 75.1381, "ARG_OF_PERICENTER": 147.9814, "MEAN_ANOMALY": 278.5724, "EPHEMERIS_TYPE": 0, "CLASSIFICATION_TYPE": "U", "NORAD_CAT_ID": 33776, "ELEMENT_SET_NO": 999, "REV_AT_EPOCH": 88275, "BSTAR": 0.00025007, "MEAN_MOTION_DOT": 7.81e-06, "MEAN_MOTION_DDOT": 0}, "tle": {"line1": "1 33776U 97051P   25360.16441030  .00000781  00000+0  25007-3 0  9995", "line2": "2 33776  86.4031  75.1381 0015834 147.9814 278.5724 14.38257306882754"}}, "geometry": {"type": "Point", "coordinates": [-104.48508062818705, -7.4968192103663975]}}, {"type": "Feature", "properties": {"norad_id": 33777, "name": "IRIDIUM 33 DEB", "group": "iridium-33-debris", "lat": 69.88398869142368, "lon": -160.69929964344178, "alt_km": 699.8190109013458, "timestamp": "2025-12-26T09:30:54.024019+00:00", "meta": {"OBJECT_NAME": "IRIDIUM 33 DEB", "OBJECT_ID": "1997-051Q", "EPOCH": "2025-12-26T02:24:47.329056", "MEAN_MOTION": 14.55704127, "ECCENTRICITY": 0.0006426, "INCLINATION": 86.3774, "RA_OF_ASC_NODE": 29.3899, "ARG_OF_PERICENTER": 193.5628, "MEAN_ANOMALY": 166.5408, "EPHEMERIS_TYPE": 0, "CLASSIFICATION_TYPE": "U", "NORAD_CAT_ID": 33777, "ELEMENT_SET_NO": 999, "REV_AT_EPOCH": 88728, "BSTAR": 0.00079498, "MEAN_MOTION_DOT": 3.495e-05, "MEAN_MOTION_DDOT": 0}, "tle": {"line1": "1 33777U 97051Q   25360.10054779  .00003495  00000+0  79498-3 0  9998", "line2": "2 33777  86.3774  29.3899 0006426 193.5628 166.5408 14.55704127887285"}}, "geometry": {"type": "Point", "coordinates": [-160.69929964344178, 69.88398869142368]}}, {"type": "Feature", "properties": {"norad_id": 33850, "name": "IRIDIUM 33 DEB", "group": "iridium-33-debris", "lat": 49.02050197656833, "lon": -159.91824742709173, "alt_km": 737.6082009403272, "timestamp": "2025-12-26T09:30:54.024031+00:00", "meta": {"OBJECT_NAME": "IRIDIUM 33 DEB", "OBJECT_ID": "1997-051T", "EPOCH": "2025-12-26T02:30:00.751104", "MEAN_MOTION": 14.42179658, "ECCENTRICITY": 0.001333, "INCLINATION": 86.3408, "RA_OF_ASC_NODE": 24.4322, "ARG_OF_PERICENTER": 121.3871, "MEAN_ANOMALY": 292.8328, "EPHEMERIS_TYPE": 0, "CLASSIFICATION_TYPE": "U", "NORAD_CAT_ID": 33850, "ELEMENT_SET_NO": 999, "REV_AT_EPOCH": 88345, "BSTAR": 0.00041068, "MEAN_MOTION_DOT": 1.372e-05, "MEAN_MOTION_DDOT": 0}, "tle": {"line1": "1 33850U 97051T   25360.10417536  .00001372  00000+0  41068-3 0  9998", "line2": "2 33850  86.3408  24.4322 0013330 121.3871 292.8328 14.42179658883459"}}, "geometry": {"type": "Point", "coordinates": [-159.91824742709173, 49.02050197656833]}}, {"type": "Feature", "properties": {"norad_id": 33853, "name": "IRIDIUM 33 DEB", "group": "iridium-33-debris", "lat": -20.046238655854893, "lon": 165.28498338907033, "alt_km": 751.6816710078338, "timestamp": "2025-12-26T09:30:54.024044+00:00", "meta": {"OBJECT_NAME": "IRIDIUM 33 DEB", "OBJECT_ID": "1997-051W", "EPOCH": "2025-12-25T22:21:09.286272", "MEAN_MOTION": 13.99124294, "ECCENTRICITY": 0.0207818, "INCLINATION": 85.9999, "RA_OF_ASC_NODE": 344.0258, "ARG_OF_PERICENTER": 195.1397, "MEAN_ANOMALY": 183.3683, "EPHEMERIS_TYPE": 0, "CLASSIFICATION_TYPE": "U", "NORAD_CAT_ID": 33853, "ELEMENT_SET_NO": 999, "REV_AT_EPOCH": 85530, "BSTAR": 0.0011389, "MEAN_MOTION_DOT": 2.002e-05, "MEAN_MOTION_DDOT": 0}, "tle": {"line1": "1 33853U 97051W   25359.93135748  .00002002  00000+0  11389-2 0  9995", "line2": "2 33853  85.9999 344.0258 0207818 195.1397 183.3683 13.99124294855307"}}, "geometry": {"type": "Point", "coordinates": [165.28498338907033, -20.046238655854893]}}, {"type": "Feature", "properties": {"norad_id": 33860, "name": "IRIDIUM 33 DEB", "group": "iridium-33-debris", "lat": -45.79506749663292, "lon": -155.07947338511875, "alt_km": 674.913000507263, "timestamp": "2025-12-26T09:30:54.024055+00:00", "meta": {"OBJECT_NAME": "IRIDIUM 33 DEB", "OBJECT_ID": "1997-051AD", "EPOCH": "2025-12-26T02:11:16.037376", "MEAN_MOTION": 14.6752687, "ECCENTRICITY": 0.0006001, "INCLINATION": 86.3825, "RA_OF_ASC_NODE": 21.3263, "ARG_OF_PERICENTER": 304.5044, "MEAN_ANOMALY": 109.5001, "EPHEMERIS_TYPE": 0, "CLASSIFICATION_TYPE": "U", "NORAD_CAT_ID": 33860, "ELEMENT_SET_NO": 999, "REV_AT_EPOCH": 88918, "BSTAR": 0.001134, "MEAN_MOTION_DOT": 6.452e-05, "MEAN_MOTION_DDOT": 0}, "tle": {"line1": "1 33860U 97051AD  25360.09115784  .00006452  00000+0  11340-2 0  9990", "line2": "2 33860  86.3825  21.3263 0006001 304.5044 109.5001 14.67526870889184"}}, "geometry": {"type": "Point", "coordinates": [-155.07947338511875, -45.79506749663292]}}, {"type": "Feature", "properties": {"norad_id": 33862, "name": "IRIDIUM 33 DEB", "group": "iridium-33-debris", "lat": 5.605493977128352, "lon": 31.85975420683374, "alt_km": 629.4702019564475, "timestamp": "2025-12-26T09:30:54.024067+00:00", "meta": {"OBJECT_NAME": "IRIDIUM 33 DEB", "OBJECT_ID": "1997-051AF", "EPOCH": "2025-12-26T03:12:38.980800", "MEAN_MOTION": 14.69690287, "ECCENTRICITY": 0.0051963, "INCLINATION": 86.4084, "RA_OF_ASC_NODE": 31.6224, "ARG_OF_PERICENTER": 24.1481, "MEAN_ANOMALY": 32.8938, "EPHEMERIS_TYPE": 0, "CLASSIFICATION_TYPE": "U", "NORAD_CAT_ID": 33862, "ELEMENT_SET_NO": 999, "REV_AT_EPOCH": 89020, "BSTAR": 0.0014362, "MEAN_MOTION_DOT": 8.756e-05, "MEAN_MOTION_DDOT": 0}, "tle": {"line1": "1 33862U 97051AF  25360.13378450  .00008756  00000+0  14362-2 0  9994", "line2": "2 33862  86.4084  31.6224 0051963  24.1481  32.8938 14.69690287890200"}}, "geometry": {"type": "Point", "coordinates": [31.85975420683374, 5.605493977128352]}}, {"type": "Feature", "properties": {"norad_id": 33866, "name": "IRIDIUM 33 DEB", "group": "iridium-33-debris", "lat": 55.75292967621076, "lon": 92.7124306763747, "alt_km": 762.665668509545, "timestamp": "2025-12-26T09:30:54.024083+00:00", "meta": {"OBJECT_NAME": "IRIDIUM 33 DEB", "OBJECT_ID": "1997-051AK", "EPOCH": "2025-12-25T18:40:33.881088", "MEAN_MOTION": 14.25314214, "ECCENTRICITY": 0.01153113, "INCLINATION": 86.2996, "RA_OF_ASC_NODE": 87.5194, "ARG_OF_PERICENTER": 120.0722, "MEAN_ANOMALY": 6.5458, "EPHEMERIS_TYPE": 0, "CLASSIFICATION_TYPE": "U", "NORAD_CAT_ID": 33866, "ELEMENT_SET_NO": 999, "REV_AT_EPOCH": 86996, "BSTAR": 0.00059555081, "MEAN_MOTION_DOT": 1.523e-05, "MEAN_MOTION_DDOT": 0}, "tle": {"line1": "1 33866U 97051AK  25359.77816992  .00001523  00000+0  59555-3 0  9993", "line2": "2 33866  86.2996  87.5194 0115311 120.0722   6.5458 14.25314214869961"}}, "geometry": {"type": "Point", "coordinates": [92.7124306763747, 55.75292967621076]}}]}